[{"OBJECT_NAME":"GAOFEN-9 02","OBJECT_ID":"2020-034B","EPOCH":"2026-03-10T00:01:23.433024","MEAN_MOTION":15.24736529,"ECCENTRICITY":0.00138652,"INCLINATION":97.5615,"RA_OF_ASC_NODE":225.1997,"ARG_OF_PERICENTER":60.5372,"MEAN_ANOMALY":299.7247,"EPHEMERIS_TYPE":0,"CLASSIFICATION_TYPE":"U","NORAD_CAT_ID":45625,"ELEMENT_SET_NO":999,"REV_AT_EPOCH":32104,"BSTAR":0.00036092627,"MEAN_MOTION_DOT":8.888e-5,"MEAN_MOTION_DDOT":0},{"OBJECT_NAME":"STARLINK-32819","OBJECT_ID":"2025-031Q","EPOCH":"2026-03-09T05:12:56.047104","MEAN_MOTION":15.27593786,"ECCENTRICITY":7.12e-5,"INCLINATION":42.9949,"RA_OF_ASC_NODE":145.9446,"ARG_OF_PERICENTER":140.1523,"MEAN_ANOMALY":219.9381,"EPHEMERIS_TYPE":0,"CLASSIFICATION_TYPE":"U","NORAD_CAT_ID":62995,"ELEMENT_SET_NO":999,"REV_AT_EPOCH":6102,"BSTAR":0.00083900827,"MEAN_MOTION_DOT":0.00022907,"MEAN_MOTION_DDOT":0}]
